{"fetched_at":"2026-07-20T07:40:17.151Z","source":"https://celestrak.org/NORAD/elements/gp.php?GROUP=kuiper&FORMAT=JSON","constellation":"kuiper","records":[{"OBJECT_NAME":"KUIPER-00438","OBJECT_ID":"2026-098X","EPOCH":"2026-07-19T20:00:01.999008","CLASSIFICATION_TYPE":"U","MEAN_MOTION":15.04792477,"ECCENTRICITY":0.0004569,"INCLINATION":51.8892,"RA_OF_ASC_NODE":272.7103,"ARG_OF_PERICENTER":307.8033,"MEAN_ANOMALY":247.7686,"EPHEMERIS_TYPE":0,"NORAD_CAT_ID":68940,"ELEMENT_SET_NO":999,"REV_AT_EPOCH":520,"BSTAR":-0.0039604,"MEAN_MOTION_DOT":-0.00056377,"MEAN_MOTION_DDOT":0},{"OBJECT_NAME":"KUIPER-00439","OBJECT_ID":"2026-098Y","EPOCH":"2026-07-19T20:00:01.999008","CLASSIFICATION_TYPE":"U","MEAN_MOTION":15.0672415,"ECCENTRICITY":0.0006226,"INCLINATION":51.8888,"RA_OF_ASC_NODE":272.7518,"ARG_OF_PERICENTER":288.4265,"MEAN_ANOMALY":297.201,"EPHEMERIS_TYPE":0,"NORAD_CAT_ID":68941,"ELEMENT_SET_NO":999,"REV_AT_EPOCH":494,"BSTAR":-0.0034293,"MEAN_MOTION_DOT":-0.00051503,"MEAN_MOTION_DDOT":0},{"OBJECT_NAME":"KUIPER-00440","OBJECT_ID":"2026-098Z","EPOCH":"2026-07-19T11:22:05.971872","CLASSIFICATION_TYPE":"U","MEAN_MOTION":15.31500168,"ECCENTRICITY":0.00029276,"INCLINATION":51.8776,"RA_OF_ASC_NODE":273.136,"ARG_OF_PERICENTER":313.5131,"MEAN_ANOMALY":46.561,"EPHEMERIS_TYPE":0,"NORAD_CAT_ID":68942,"ELEMENT_SET_NO":999,"REV_AT_EPOCH":1229,"BSTAR":0.00023946625,"MEAN_MOTION_DOT":0.00007033,"MEAN_MOTION_DDOT":0},{"OBJECT_NAME":"KUIPER-00442","OBJECT_ID":"2026-098AA","EPOCH":"2026-07-19T20:00:01.999008","CLASSIFICATION_TYPE":"U","MEAN_MOTION":15.28414808,"ECCENTRICITY":0.0002673,"INCLINATION":51.8798,"RA_OF_ASC_NODE":270.8558,"ARG_OF_PERICENTER":271.5145,"MEAN_ANOMALY":176.2648,"EPHEMERIS_TYPE":0,"NORAD_CAT_ID":68943,"ELEMENT_SET_NO":999,"REV_AT_EPOCH":534,"BSTAR":-0.00080643,"MEAN_MOTION_DOT":-0.00022914,"MEAN_MOTION_DDOT":0},{"OBJECT_NAME":"KUIPER-00446","OBJECT_ID":"2026-098AB","EPOCH":"2026-07-19T20:00:01.999008","CLASSIFICATION_TYPE":"U","MEAN_MOTION":15.19411095,"ECCENTRICITY":0.0003276,"INCLINATION":51.8859,"RA_OF_ASC_NODE":271.4538,"ARG_OF_PERICENTER":255.391,"MEAN_ANOMALY":227.6294,"EPHEMERIS_TYPE":0,"NORAD_CAT_ID":68944,"ELEMENT_SET_NO":999,"REV_AT_EPOCH":586,"BSTAR":-0.058803,"MEAN_MOTION_DOT":-0.01162581,"MEAN_MOTION_DDOT":0},{"OBJECT_NAME":"KUIPER-00451","OBJECT_ID":"2026-098AC","EPOCH":"2026-07-19T20:00:01.999008","CLASSIFICATION_TYPE":"U","MEAN_MOTION":14.77031076,"ECCENTRICITY":0.0002722,"INCLINATION":51.8977,"RA_OF_ASC_NODE":278.6248,"ARG_OF_PERICENTER":243.4215,"MEAN_ANOMALY":212.8555,"EPHEMERIS_TYPE":0,"NORAD_CAT_ID":68945,"ELEMENT_SET_NO":999,"REV_AT_EPOCH":565,"BSTAR":-0.015171,"MEAN_MOTION_DOT":-0.00106504,"MEAN_MOTION_DDOT":0},{"OBJECT_NAME":"KUIPER-00452","OBJECT_ID":"2026-098AD","EPOCH":"2026-07-19T20:00:01.999008","CLASSIFICATION_TYPE":"U","MEAN_MOTION":15.27342129,"ECCENTRICITY":0.0002887,"INCLINATION":51.8782,"RA_OF_ASC_NODE":270.1454,"ARG_OF_PERICENTER":293.229,"MEAN_ANOMALY":153.8461,"EPHEMERIS_TYPE":0,"NORAD_CAT_ID":68946,"ELEMENT_SET_NO":999,"REV_AT_EPOCH":461,"BSTAR":-0.093343,"MEAN_MOTION_DOT":-0.02261197,"MEAN_MOTION_DDOT":0},{"OBJECT_NAME":"KUIPER-00453","OBJECT_ID":"2026-098AE","EPOCH":"2026-07-19T20:00:01.999008","CLASSIFICATION_TYPE":"U","MEAN_MOTION":15.34852026,"ECCENTRICITY":0.0003653,"INCLINATION":51.8752,"RA_OF_ASC_NODE":269.46,"ARG_OF_PERICENTER":342.9444,"MEAN_ANOMALY":76.6324,"EPHEMERIS_TYPE":0,"NORAD_CAT_ID":68947,"ELEMENT_SET_NO":999,"REV_AT_EPOCH":578,"BSTAR":-0.045132,"MEAN_MOTION_DOT":-0.01407163,"MEAN_MOTION_DDOT":0},{"OBJECT_NAME":"KUIPER-00454","OBJECT_ID":"2026-098AF","EPOCH":"2026-07-19T20:00:01.999008","CLASSIFICATION_TYPE":"U","MEAN_MOTION":14.76449557,"ECCENTRICITY":0.0003636,"INCLINATION":51.8989,"RA_OF_ASC_NODE":279.9707,"ARG_OF_PERICENTER":151.6821,"MEAN_ANOMALY":99.6728,"EPHEMERIS_TYPE":0,"NORAD_CAT_ID":68948,"ELEMENT_SET_NO":999,"REV_AT_EPOCH":536,"BSTAR":-0.0040255,"MEAN_MOTION_DOT":-0.00028363,"MEAN_MOTION_DDOT":0},{"OBJECT_NAME":"KUIPER-00455","OBJECT_ID":"2026-098AG","EPOCH":"2026-07-19T20:00:01.999008","CLASSIFICATION_TYPE":"U","MEAN_MOTION":14.81386276,"ECCENTRICITY":0.0006368,"INCLINATION":51.8984,"RA_OF_ASC_NODE":278.8119,"ARG_OF_PERICENTER":257.1527,"MEAN_ANOMALY":282.1302,"EPHEMERIS_TYPE":0,"NORAD_CAT_ID":68949,"ELEMENT_SET_NO":999,"REV_AT_EPOCH":553,"BSTAR":-0.011541,"MEAN_MOTION_DOT":-0.00090149,"MEAN_MOTION_DDOT":0},{"OBJECT_NAME":"KUIPER-00458","OBJECT_ID":"2026-098AH","EPOCH":"2026-07-19T20:00:01.999008","CLASSIFICATION_TYPE":"U","MEAN_MOTION":15.35029385,"ECCENTRICITY":0.000316,"INCLINATION":51.8774,"RA_OF_ASC_NODE":269.7904,"ARG_OF_PERICENTER":313.0034,"MEAN_ANOMALY":300.7322,"EPHEMERIS_TYPE":0,"NORAD_CAT_ID":68950,"ELEMENT_SET_NO":999,"REV_AT_EPOCH":571,"BSTAR":-0.037562,"MEAN_MOTION_DOT":-0.01179281,"MEAN_MOTION_DDOT":0},{"OBJECT_NAME":"KUIPER-00282","OBJECT_ID":"2026-118A","EPOCH":"2026-07-19T20:00:01.999008","CLASSIFICATION_TYPE":"U","MEAN_MOTION":15.06182983,"ECCENTRICITY":0.0012005,"INCLINATION":51.8852,"RA_OF_ASC_NODE":257.7837,"ARG_OF_PERICENTER":315.1695,"MEAN_ANOMALY":284.7563,"EPHEMERIS_TYPE":0,"NORAD_CAT_ID":69267,"ELEMENT_SET_NO":999,"REV_AT_EPOCH":565,"BSTAR":-0.0039244,"MEAN_MOTION_DOT":-0.00058067,"MEAN_MOTION_DDOT":0},{"OBJECT_NAME":"KUIPER-00383","OBJECT_ID":"2026-118B","EPOCH":"2026-07-19T20:00:01.999008","CLASSIFICATION_TYPE":"U","MEAN_MOTION":15.20580931,"ECCENTRICITY":0.0009393,"INCLINATION":51.872,"RA_OF_ASC_NODE":256.8149,"ARG_OF_PERICENTER":309.3213,"MEAN_ANOMALY":89.272,"EPHEMERIS_TYPE":0,"NORAD_CAT_ID":69268,"ELEMENT_SET_NO":999,"REV_AT_EPOCH":270,"BSTAR":-0.073804,"MEAN_MOTION_DOT":-0.01500879,"MEAN_MOTION_DDOT":0},{"OBJECT_NAME":"KUIPER-00527","OBJECT_ID":"2026-118C","EPOCH":"2026-07-19T20:00:01.999008","CLASSIFICATION_TYPE":"U","MEAN_MOTION":15.16037246,"ECCENTRICITY":0.0007636,"INCLINATION":51.8783,"RA_OF_ASC_NODE":256.7686,"ARG_OF_PERICENTER":315.7464,"MEAN_ANOMALY":71.7048,"EPHEMERIS_TYPE":0,"NORAD_CAT_ID":69269,"ELEMENT_SET_NO":999,"REV_AT_EPOCH":265,"BSTAR":-0.0044433,"MEAN_MOTION_DOT":-0.0008589,"MEAN_MOTION_DDOT":0},{"OBJECT_NAME":"KUIPER-00562","OBJECT_ID":"2026-118D","EPOCH":"2026-07-19T09:46:37.199136","CLASSIFICATION_TYPE":"U","MEAN_MOTION":15.38149899,"ECCENTRICITY":0.00006692,"INCLINATION":51.8714,"RA_OF_ASC_NODE":257.1249,"ARG_OF_PERICENTER":31.5336,"MEAN_ANOMALY":328.5691,"EPHEMERIS_TYPE":0,"NORAD_CAT_ID":69270,"ELEMENT_SET_NO":999,"REV_AT_EPOCH":894,"BSTAR":0.00029465052,"MEAN_MOTION_DOT":0.00010865,"MEAN_MOTION_DDOT":0},{"OBJECT_NAME":"KUIPER-00570","OBJECT_ID":"2026-118E","EPOCH":"2026-07-19T20:00:01.999008","CLASSIFICATION_TYPE":"U","MEAN_MOTION":14.93635754,"ECCENTRICITY":0.0007977,"INCLINATION":51.891,"RA_OF_ASC_NODE":259.3853,"ARG_OF_PERICENTER":324.125,"MEAN_ANOMALY":152.9757,"EPHEMERIS_TYPE":0,"NORAD_CAT_ID":69271,"ELEMENT_SET_NO":999,"REV_AT_EPOCH":433,"BSTAR":-0.0072924,"MEAN_MOTION_DOT":-0.00077277,"MEAN_MOTION_DDOT":0}]}
