KUIPER-00438            
1 68940U 26098X   26200.83335647 -.00056377  00000+0 -39604-2 0  9994
2 68940  51.8892 272.7103 0004569 307.8033 247.7686 15.04792477  5205
KUIPER-00439            
1 68941U 26098Y   26200.83335647 -.00051503  00000+0 -34293-2 0  9990
2 68941  51.8888 272.7518 0006226 288.4265 297.2010 15.06724150  4940
KUIPER-00440            
1 68942U 26098Z   26200.47368023  .00007033  00000+0  23947-3 0  9997
2 68942  51.8776 273.1360 0002927 313.5131  46.5610 15.31500168 12290
KUIPER-00442            
1 68943U 26098AA  26200.83335647 -.00022914  00000+0 -80643-3 0  9997
2 68943  51.8798 270.8558 0002673 271.5145 176.2648 15.28414808  5345
KUIPER-00446            
1 68944U 26098AB  26200.83335647 -.01162581  00000+0 -58803-1 0  9995
2 68944  51.8859 271.4538 0003276 255.3910 227.6294 15.19411095  5869
KUIPER-00451            
1 68945U 26098AC  26200.83335647 -.00106504  00000+0 -15171-1 0  9999
2 68945  51.8977 278.6248 0002722 243.4215 212.8555 14.77031076  5652
KUIPER-00452            
1 68946U 26098AD  26200.83335647 -.02261197  00000+0 -93343-1 0  9999
2 68946  51.8782 270.1454 0002887 293.2290 153.8461 15.27342129  4616
KUIPER-00453            
1 68947U 26098AE  26200.83335647 -.01407163  00000+0 -45132-1 0  9997
2 68947  51.8752 269.4600 0003653 342.9444  76.6324 15.34852026  5782
KUIPER-00454            
1 68948U 26098AF  26200.83335647 -.00028363  00000+0 -40255-2 0  9990
2 68948  51.8989 279.9707 0003636 151.6821  99.6728 14.76449557  5367
KUIPER-00455            
1 68949U 26098AG  26200.83335647 -.00090149  00000+0 -11541-1 0  9997
2 68949  51.8984 278.8119 0006368 257.1527 282.1302 14.81386276  5538
KUIPER-00458            
1 68950U 26098AH  26200.83335647 -.01179281  00000+0 -37562-1 0  9996
2 68950  51.8774 269.7904 0003160 313.0034 300.7322 15.35029385  5714
KUIPER-00282            
1 69267U 26118A   26200.83335647 -.00058067  00000+0 -39244-2 0  9998
2 69267  51.8852 257.7837 0012005 315.1695 284.7563 15.06182983  5652
KUIPER-00383            
1 69268U 26118B   26200.83335647 -.01500879  00000+0 -73804-1 0  9992
2 69268  51.8720 256.8149 0009393 309.3213  89.2720 15.20580931  2707
KUIPER-00527            
1 69269U 26118C   26200.83335647 -.00085890  00000+0 -44433-2 0  9990
2 69269  51.8783 256.7686 0007636 315.7464  71.7048 15.16037246  2653
KUIPER-00562            
1 69270U 26118D   26200.40737499  .00010865  00000+0  29465-3 0  9993
2 69270  51.8714 257.1249 0000669  31.5336 328.5691 15.38149899  8946
KUIPER-00570            
1 69271U 26118E   26200.83335647 -.00077277  00000+0 -72924-2 0  9999
2 69271  51.8910 259.3853 0007977 324.1250 152.9757 14.93635754  4336
